start=new Date('2022-02-17T00:00:00.000Z').valueOf();
sats=[{"MEAN_MOTION_DDOT":"0.0000000000000","MEAN_MOTION_DOT":"0.00001191","PERIAPSIS":"546.188","TLE_LINE1":"1 46382U 20062BK  22047.56986994  .00001191  00000-0  98865-4 0  9996","CENTER_NAME":"EARTH","EPHEMERIS_TYPE":"0","REV_AT_EPOCH":"8155","RCS_SIZE":"LARGE","MEAN_MOTION":"15.06395761","ELEMENT_SET_NO":"999","DECAY_DATE":null,"APOAPSIS":"548.265","REF_FRAME":"TEME","OBJECT_TYPE":"PAYLOAD","EPOCH":"2022-02-16T13:40:36.762816","CLASSIFICATION_TYPE":"U","PERIOD":"95.592","MEAN_ANOMALY":"297.1892","SEMIMAJOR_AXIS":"6925.362","BSTAR":"0.00009886500000","FILE":"3301890","OBJECT_ID":"2020-062BK","ARG_OF_PERICENTER":"62.9250","MEAN_ELEMENT_THEORY":"SGP4","RA_OF_ASC_NODE":"145.1263","ECCENTRICITY":"0.00015000","NORAD_CAT_ID":"46382","SITE":"AFETR","COUNTRY_CODE":"US","OBJECT_NAME":"STARLINK-1769","TLE_LINE2":"2 46382  53.0542 145.1263 0001500  62.9250 297.1892 15.06395761 81556","LAUNCH_DATE":"2020-09-03","TIME_SYSTEM":"UTC","INCLINATION":"53.0542","GP_ID":"196092662"},{"EPHEMERIS_TYPE":"0","CENTER_NAME":"EARTH","RCS_SIZE":"LARGE","MEAN_MOTION":"15.06397622","REV_AT_EPOCH":"8094","MEAN_MOTION_DOT":"-0.00000414","PERIAPSIS":"546.288","MEAN_MOTION_DDOT":"0.0000000000000","TLE_LINE1":"1 46383U 20062BL  22047.75554379 -.00000414  00000-0 -88808-5 0  9992","CLASSIFICATION_TYPE":"U","PERIOD":"95.592","MEAN_ANOMALY":"283.8185","DECAY_DATE":null,"APOAPSIS":"548.154","ELEMENT_SET_NO":"999","EPOCH":"2022-02-16T18:07:58.983456","REF_FRAME":"TEME","OBJECT_TYPE":"PAYLOAD","COUNTRY_CODE":"US","SITE":"AFETR","NORAD_CAT_ID":"46383","ECCENTRICITY":"0.00013470","OBJECT_NAME":"STARLINK-1770","BSTAR":"-0.00000888080000","FILE":"3302660","SEMIMAJOR_AXIS":"6925.356","MEAN_ELEMENT_THEORY":"SGP4","RA_OF_ASC_NODE":"189.2842","ARG_OF_PERICENTER":"76.2954","OBJECT_ID":"2020-062BL","INCLINATION":"53.0546","TLE_LINE2":"2 46383  53.0546 189.2842 0001347  76.2954 283.8185 15.06397622 80948","TIME_SYSTEM":"UTC","LAUNCH_DATE":"2020-09-03","GP_ID":"196131764"},{"TLE_LINE2":"2 46384  53.0557 189.2588 0001385  83.8568 276.2579 15.06397882 80946","TIME_SYSTEM":"UTC","LAUNCH_DATE":"2020-09-03","INCLINATION":"53.0557","GP_ID":"196132514","ECCENTRICITY":"0.00013850","NORAD_CAT_ID":"46384","SITE":"AFETR","COUNTRY_CODE":"US","OBJECT_NAME":"STARLINK-1771","SEMIMAJOR_AXIS":"6925.355","FILE":"3302660","BSTAR":"0.00001112900000","ARG_OF_PERICENTER":"83.8568","OBJECT_ID":"2020-062BM","MEAN_ELEMENT_THEORY":"SGP4","RA_OF_ASC_NODE":"189.2588","CLASSIFICATION_TYPE":"U","PERIOD":"95.592","MEAN_ANOMALY":"276.2579","ELEMENT_SET_NO":"999","DECAY_DATE":null,"APOAPSIS":"548.179","REF_FRAME":"TEME","OBJECT_TYPE":"PAYLOAD","EPOCH":"2022-02-16T18:13:17.433120","CENTER_NAME":"EARTH","EPHEMERIS_TYPE":"0","REV_AT_EPOCH":"8094","MEAN_MOTION":"15.06397882","RCS_SIZE":"LARGE","MEAN_MOTION_DDOT":"0.0000000000000","MEAN_MOTION_DOT":"-0.00000116","PERIAPSIS":"546.261","TLE_LINE1":"1 46384U 20062BM  22047.75922955 -.00000116  00000-0  11129-4 0  9991"},{"PERIOD":"95.592","CLASSIFICATION_TYPE":"U","MEAN_ANOMALY":"285.2240","APOAPSIS":"548.146","DECAY_DATE":null,"ELEMENT_SET_NO":"999","EPOCH":"2022-02-16T13:26:40.265664","OBJECT_TYPE":"PAYLOAD","REF_FRAME":"TEME","EPHEMERIS_TYPE":"0","CENTER_NAME":"EARTH","MEAN_MOTION":"15.06401998","RCS_SIZE":"LARGE","REV_AT_EPOCH":"7611","PERIAPSIS":"546.269","MEAN_MOTION_DOT":"0.00011050","MEAN_MOTION_DDOT":"0.0000000000000","TLE_LINE1":"1 46532U 20070A   22047.56018826  .00011050  00000-0  75952-3 0  9998","INCLINATION":"53.0547","LAUNCH_DATE":"2020-10-06","TIME_SYSTEM":"UTC","TLE_LINE2":"2 46532  53.0547 350.1542 0001355  74.8899 285.2240 15.06401998 76116","GP_ID":"196092676","SITE":"AFETR","COUNTRY_CODE":"US","NORAD_CAT_ID":"46532","ECCENTRICITY":"0.00013550","OBJECT_NAME":"STARLINK-1644","FILE":"3301890","BSTAR":"0.00075952000000","SEMIMAJOR_AXIS":"6925.342","RA_OF_ASC_NODE":"350.1542","MEAN_ELEMENT_THEORY":"SGP4","OBJECT_ID":"2020-070A","ARG_OF_PERICENTER":"74.8899"},{"GP_ID":"196131778","LAUNCH_DATE":"2020-10-06","TIME_SYSTEM":"UTC","TLE_LINE2":"2 46533  53.0525 348.9093 0001614  68.4703 291.6458 15.06412597 76153","INCLINATION":"53.0525","OBJECT_NAME":"STARLINK-1648","ECCENTRICITY":"0.00016140","NORAD_CAT_ID":"46533","SITE":"AFETR","COUNTRY_CODE":"US","ARG_OF_PERICENTER":"68.4703","OBJECT_ID":"2020-070B","RA_OF_ASC_NODE":"348.9093","MEAN_ELEMENT_THEORY":"SGP4","SEMIMAJOR_AXIS":"6925.310","BSTAR":"0.00079028000000","FILE":"3302660","MEAN_ANOMALY":"291.6458","PERIOD":"95.591","CLASSIFICATION_TYPE":"U","OBJECT_TYPE":"PAYLOAD","REF_FRAME":"TEME","EPOCH":"2022-02-16T20:04:45.754752","ELEMENT_SET_NO":"999","APOAPSIS":"548.293","DECAY_DATE":null,"REV_AT_EPOCH":"7615","RCS_SIZE":"LARGE","MEAN_MOTION":"15.06412597","CENTER_NAME":"EARTH","EPHEMERIS_TYPE":"0","TLE_LINE1":"1 46533U 20070B   22047.83664068  .00011513  00000-0  79028-3 0  9996","MEAN_MOTION_DDOT":"0.0000000000000","PERIAPSIS":"546.057","MEAN_MOTION_DOT":"0.00011513"},{"NORAD_CAT_ID":"46534","ECCENTRICITY":"0.00015530","SITE":"AFETR","COUNTRY_CODE":"US","OBJECT_NAME":"STARLINK-1659","SEMIMAJOR_AXIS":"6925.394","BSTAR":"-0.00024775000000","FILE":"3302256","ARG_OF_PERICENTER":"60.1567","OBJECT_ID":"2020-070C","MEAN_ELEMENT_THEORY":"SGP4","RA_OF_ASC_NODE":"350.1885","TLE_LINE2":"2 46534  53.0569 350.1885 0001553  60.1567 299.9576 15.06385166 76136","TIME_SYSTEM":"UTC","LAUNCH_DATE":"2020-10-06","INCLINATION":"53.0569","GP_ID":"196100374","CENTER_NAME":"EARTH","EPHEMERIS_TYPE":"0","REV_AT_EPOCH":"7613","MEAN_MOTION":"15.06385166","RCS_SIZE":"LARGE","MEAN_MOTION_DDOT":"0.0000000000000","MEAN_MOTION_DOT":"-0.00003968","PERIAPSIS":"546.184","TLE_LINE1":"1 46534U 20070C   22047.55282162 -.00003968  00000-0 -24775-3 0  9993","CLASSIFICATION_TYPE":"U","PERIOD":"95.593","MEAN_ANOMALY":"299.9576","ELEMENT_SET_NO":"999","DECAY_DATE":null,"APOAPSIS":"548.335","REF_FRAME":"TEME","OBJECT_TYPE":"PAYLOAD","EPOCH":"2022-02-16T13:16:03.787968"},{"INCLINATION":"53.0554","TLE_LINE2":"2 46535  53.0554 348.7544 0001762  71.6380 288.4800 15.06401559 76158","TIME_SYSTEM":"UTC","LAUNCH_DATE":"2020-10-06","GP_ID":"196131276","BSTAR":"0.00006970800000","FILE":"3302660","SEMIMAJOR_AXIS":"6925.344","MEAN_ELEMENT_THEORY":"SGP4","RA_OF_ASC_NODE":"348.7544","OBJECT_ID":"2020-070D","ARG_OF_PERICENTER":"71.6380","COUNTRY_CODE":"US","SITE":"AFETR","NORAD_CAT_ID":"46535","ECCENTRICITY":"0.00017620","OBJECT_NAME":"STARLINK-1663","DECAY_DATE":null,"APOAPSIS":"548.429","ELEMENT_SET_NO":"999","EPOCH":"2022-02-16T20:57:50.147712","REF_FRAME":"TEME","OBJECT_TYPE":"PAYLOAD","CLASSIFICATION_TYPE":"U","PERIOD":"95.592","MEAN_ANOMALY":"288.4800","MEAN_MOTION_DOT":"0.00000757","PERIAPSIS":"545.989","MEAN_MOTION_DDOT":"0.0000000000000","TLE_LINE1":"1 46535U 20070D   22047.87349708  .00000757  00000-0  69708-4 0  9996","EPHEMERIS_TYPE":"0","CENTER_NAME":"EARTH","MEAN_MOTION":"15.06401559","RCS_SIZE":"LARGE","REV_AT_EPOCH":"7615"},{"TLE_LINE1":"1 46537U 20070F   22047.56756314  .00000833  00000-0  74824-4 0  9999","PERIAPSIS":"546.193","MEAN_MOTION_DOT":"0.00000833","MEAN_MOTION_DDOT":"0.0000000000000","MEAN_MOTION":"15.06395947","RCS_SIZE":"LARGE","REV_AT_EPOCH":"7582","EPHEMERIS_TYPE":"0","CENTER_NAME":"EARTH","EPOCH":"2022-02-16T13:37:17.455296","OBJECT_TYPE":"PAYLOAD","REF_FRAME":"TEME","APOAPSIS":"548.259","DECAY_DATE":null,"ELEMENT_SET_NO":"999","MEAN_ANOMALY":"286.3760","PERIOD":"95.592","CLASSIFICATION_TYPE":"U","RA_OF_ASC_NODE":"350.1209","MEAN_ELEMENT_THEORY":"SGP4","ARG_OF_PERICENTER":"73.7393","OBJECT_ID":"2020-070F","BSTAR":"0.00007482400000","FILE":"3302278","SEMIMAJOR_AXIS":"6925.361","OBJECT_NAME":"STARLINK-1672","SITE":"AFETR","COUNTRY_CODE":"US","NORAD_CAT_ID":"46537","ECCENTRICITY":"0.00014910","GP_ID":"196101553","INCLINATION":"53.0549","TIME_SYSTEM":"UTC","LAUNCH_DATE":"2020-10-06","TLE_LINE2":"2 46537  53.0549 350.1209 0001491  73.7393 286.3760 15.06395947 75823"},{"GP_ID":"196101594","INCLINATION":"53.0549","TLE_LINE2":"2 46538  53.0549 350.2217 0001657  63.4196 296.6963 15.06397082 75815","TIME_SYSTEM":"UTC","LAUNCH_DATE":"2020-10-06","MEAN_ELEMENT_THEORY":"SGP4","RA_OF_ASC_NODE":"350.2217","OBJECT_ID":"2020-070G","ARG_OF_PERICENTER":"63.4196","BSTAR":"-0.00016349000000","FILE":"3302281","SEMIMAJOR_AXIS":"6925.358","OBJECT_NAME":"STARLINK-1678","COUNTRY_CODE":"US","SITE":"AFETR","NORAD_CAT_ID":"46538","ECCENTRICITY":"0.00016570","EPOCH":"2022-02-16T13:05:25.529568","REF_FRAME":"TEME","OBJECT_TYPE":"PAYLOAD","DECAY_DATE":null,"APOAPSIS":"548.370","ELEMENT_SET_NO":"999","MEAN_ANOMALY":"296.6963","CLASSIFICATION_TYPE":"U","PERIOD":"95.592","TLE_LINE1":"1 46538U 20070G   22047.54543437 -.00002716  00000-0 -16349-3 0  9999","MEAN_MOTION_DOT":"-0.00002716","PERIAPSIS":"546.075","MEAN_MOTION_DDOT":"0.0000000000000","MEAN_MOTION":"15.06397082","RCS_SIZE":"LARGE","REV_AT_EPOCH":"7581","EPHEMERIS_TYPE":"0","CENTER_NAME":"EARTH"},{"NORAD_CAT_ID":"46539","ECCENTRICITY":"0.00009940","SITE":"AFETR","COUNTRY_CODE":"US","OBJECT_NAME":"STARLINK-1684","SEMIMAJOR_AXIS":"6732.862","BSTAR":"0.00135190000000","FILE":"3301890","OBJECT_ID":"2020-070H","ARG_OF_PERICENTER":"108.1748","MEAN_ELEMENT_THEORY":"SGP4","RA_OF_ASC_NODE":"330.9450","TLE_LINE2":"2 46539  53.0488 330.9450 0000994 108.1748 251.9378 15.71459448 76367","TIME_SYSTEM":"UTC","LAUNCH_DATE":"2020-10-06","INCLINATION":"53.0488","GP_ID":"196094181","CENTER_NAME":"EARTH","EPHEMERIS_TYPE":"0","REV_AT_EPOCH":"7636","RCS_SIZE":"LARGE","MEAN_MOTION":"15.71459448","MEAN_MOTION_DDOT":"0.0000000000000","MEAN_MOTION_DOT":"0.00179470","PERIAPSIS":"354.058","TLE_LINE1":"1 46539U 20070H   22047.28030728  .00179470  00000-0  13519-2 0  9990","CLASSIFICATION_TYPE":"U","PERIOD":"91.635","MEAN_ANOMALY":"251.9378","ELEMENT_SET_NO":"999","DECAY_DATE":null,"APOAPSIS":"355.396","REF_FRAME":"TEME","OBJECT_TYPE":"PAYLOAD","EPOCH":"2022-02-16T06:43:38.548992"}];
